{"type": "FeatureCollection", "features": [ {"type": "Feature", "properties": {"norad_id": 29868, "name": "FENGYUN 1C DEB", "group": "fengyun-1c-debris", "lat": -68.96814082659702, "lon": -157.8340348234473, "alt_km": 609.0686047281733, "timestamp": "2025-12-23T20:42:37.347667+00:00", "meta": {"OBJECT_NAME": "FENGYUN 1C DEB", "OBJECT_ID": "1999-025FN", "EPOCH": "2025-12-23T01:57:01.638144", "MEAN_MOTION": 14.78550387, "ECCENTRICITY": 0.0195638, "INCLINATION": 97.948, "RA_OF_ASC_NODE": 42.6998, "ARG_OF_PERICENTER": 330.5235, "MEAN_ANOMALY": 83.97, "EPHEMERIS_TYPE": 0, "CLASSIFICATION_TYPE": "U", "NORAD_CAT_ID": 29868, "ELEMENT_SET_NO": 999, "REV_AT_EPOCH": 448, "BSTAR": 0.00075737625, "MEAN_MOTION_DOT": 7.585e-05, "MEAN_MOTION_DDOT": 0}, "tle": {"line1": "1 29868U 99025FN  25357.08126896  .00007585  00000+0  75738-3 0  9997", "line2": "2 29868  97.9480  42.6998 0195638 330.5235  83.9700 14.78550387  4484"}}, "geometry": {"type": "Point", "coordinates": [-157.8340348234473, -68.96814082659702]}}, {"type": "Feature", "properties": {"norad_id": 29869, "name": "FENGYUN 1C DEB", "group": "fengyun-1c-debris", "lat": 79.05138023947946, "lon": -125.36753396739904, "alt_km": 777.1640436040743, "timestamp": "2025-12-23T20:42:37.347677+00:00", "meta": {"OBJECT_NAME": "FENGYUN 1C DEB", "OBJECT_ID": "1999-025FP", "EPOCH": "2025-12-23T02:00:43.712064", "MEAN_MOTION": 14.36909754, "ECCENTRICITY": 0.00870527, "INCLINATION": 98.8745, "RA_OF_ASC_NODE": 287.697, "ARG_OF_PERICENTER": 340.6648, "MEAN_ANOMALY": 34.0954, "EPHEMERIS_TYPE": 0, "CLASSIFICATION_TYPE": "U", "NORAD_CAT_ID": 29869, "ELEMENT_SET_NO": 999, "REV_AT_EPOCH": 98969, "BSTAR": 0.00039131821, "MEAN_MOTION_DOT": 1.161e-05, "MEAN_MOTION_DDOT": 0}, "tle": {"line1": "1 29869U 99025FP  25357.08383926  .00001161  00000+0  39132-3 0  9999", "line2": "2 29869  98.8745 287.6970 0087052 340.6648  34.0954 14.36909754989693"}}, "geometry": {"type": "Point", "coordinates": [-125.36753396739904, 79.05138023947946]}}, {"type": "Feature", "properties": {"norad_id": 29870, "name": "FENGYUN 1C DEB", "group": "fengyun-1c-debris", "lat": 24.356176902006606, "lon": 152.31835907188594, "alt_km": 708.2629687255403, "timestamp": "2025-12-23T20:42:37.347687+00:00", "meta": {"OBJECT_NAME": "FENGYUN 1C DEB", "OBJECT_ID": "1999-025FQ", "EPOCH": "2025-12-23T04:56:24.338400", "MEAN_MOTION": 14.28983374, "ECCENTRICITY": 0.01204851, "INCLINATION": 98.4616, "RA_OF_ASC_NODE": 327.8165, "ARG_OF_PERICENTER": 161.5871, "MEAN_ANOMALY": 215.3866, "EPHEMERIS_TYPE": 0, "CLASSIFICATION_TYPE": "U", "NORAD_CAT_ID": 29870, "ELEMENT_SET_NO": 999, "REV_AT_EPOCH": 98743, "BSTAR": 4.5328632e-05, "MEAN_MOTION_DOT": 8.1e-07, "MEAN_MOTION_DDOT": 0}, "tle": {"line1": "1 29870U 99025FQ  25357.20583725  .00000081  00000+0  45329-4 0  9990", "line2": "2 29870  98.4616 327.8165 0120485 161.5871 215.3866 14.28983374987434"}}, "geometry": {"type": "Point", "coordinates": [152.31835907188594, 24.356176902006606]}}, {"type": "Feature", "properties": {"norad_id": 29871, "name": "FENGYUN 1C DEB", "group": "fengyun-1c-debris", "lat": -65.1838574020176, "lon": -28.447830434964505, "alt_km": 789.7008034367345, "timestamp": "2025-12-23T20:42:37.347698+00:00", "meta": {"OBJECT_NAME": "FENGYUN 1C DEB", "OBJECT_ID": "1999-025FR", "EPOCH": "2025-12-22T20:21:52.028640", "MEAN_MOTION": 14.42693927, "ECCENTRICITY": 0.00590317, "INCLINATION": 98.9744, "RA_OF_ASC_NODE": 310.5013, "ARG_OF_PERICENTER": 77.9681, "MEAN_ANOMALY": 350.1752, "EPHEMERIS_TYPE": 0, "CLASSIFICATION_TYPE": "U", "NORAD_CAT_ID": 29871, "ELEMENT_SET_NO": 999, "REV_AT_EPOCH": 98847, "BSTAR": 0.00086848254, "MEAN_MOTION_DOT": 2.903e-05, "MEAN_MOTION_DDOT": 0}, "tle": {"line1": "1 29871U 99025FR  25356.84851885  .00002903  00000+0  86848-3 0  9990", "line2": "2 29871  98.9744 310.5013 0059031  77.9681 350.1752 14.42693927988475"}}, "geometry": {"type": "Point", "coordinates": [-28.447830434964505, -65.1838574020176]}}, {"type": "Feature", "properties": {"norad_id": 29872, "name": "FENGYUN 1C DEB", "group": "fengyun-1c-debris", "lat": -36.19157388887831, "lon": 19.706994361513086, "alt_km": 644.37996097212, "timestamp": "2025-12-23T20:42:37.347708+00:00", "meta": {"OBJECT_NAME": "FENGYUN 1C DEB", "OBJECT_ID": "1999-025FS", "EPOCH": "2025-12-22T06:29:40.353216", "MEAN_MOTION": 14.38997176, "ECCENTRICITY": 0.02349571, "INCLINATION": 98.3448, "RA_OF_ASC_NODE": 11.9913, "ARG_OF_PERICENTER": 284.8308, "MEAN_ANOMALY": 72.6962, "EPHEMERIS_TYPE": 0, "CLASSIFICATION_TYPE": "U", "NORAD_CAT_ID": 29872, "ELEMENT_SET_NO": 999, "REV_AT_EPOCH": 98729, "BSTAR": 0.00054813839, "MEAN_MOTION_DOT": 2.282e-05, "MEAN_MOTION_DDOT": 0}, "tle": {"line1": "1 29872U 99025FS  25356.27060594  .00002282  00000+0  54814-3 0  9995", "line2": "2 29872  98.3448  11.9913 0234957 284.8308  72.6962 14.38997176987295"}}, "geometry": {"type": "Point", "coordinates": [19.706994361513086, -36.19157388887831]}}, {"type": "Feature", "properties": {"norad_id": 29873, "name": "FENGYUN 1C DEB", "group": "fengyun-1c-debris", "lat": -28.640208985016805, "lon": 33.043834917338394, "alt_km": 854.5584386805785, "timestamp": "2025-12-23T20:42:37.347719+00:00", "meta": {"OBJECT_NAME": "FENGYUN 1C DEB", "OBJECT_ID": "1999-025FT", "EPOCH": "2025-12-22T03:05:33.294048", "MEAN_MOTION": 13.98150201, "ECCENTRICITY": 0.00924946, "INCLINATION": 99.4412, "RA_OF_ASC_NODE": 216.4744, "ARG_OF_PERICENTER": 173.0891, "MEAN_ANOMALY": 311.7072, "EPHEMERIS_TYPE": 0, "CLASSIFICATION_TYPE": "U", "NORAD_CAT_ID": 29873, "ELEMENT_SET_NO": 999, "REV_AT_EPOCH": 96446, "BSTAR": 0.00023093969, "MEAN_MOTION_DOT": 2.94e-06, "MEAN_MOTION_DDOT": 0}, "tle": {"line1": "1 29873U 99025FT  25356.12885757  .00000294  00000+0  23094-3 0  9993", "line2": "2 29873  99.4412 216.4744 0092494 173.0891 311.7072 13.98150201964465"}}, "geometry": {"type": "Point", "coordinates": [33.043834917338394, -28.640208985016805]}}, {"type": "Feature", "properties": {"norad_id": 29874, "name": "FENGYUN 1C DEB", "group": "fengyun-1c-debris", "lat": -33.88005056709239, "lon": 68.64056443695462, "alt_km": 819.2513686452048, "timestamp": "2025-12-23T20:42:37.347729+00:00", "meta": {"OBJECT_NAME": "FENGYUN 1C DEB", "OBJECT_ID": "1999-025FU", "EPOCH": "2025-12-21T15:52:33.544704", "MEAN_MOTION": 14.28932875, "ECCENTRICITY": 0.01043593, "INCLINATION": 98.3791, "RA_OF_ASC_NODE": 252.2044, "ARG_OF_PERICENTER": 325.0932, "MEAN_ANOMALY": 92.1279, "EPHEMERIS_TYPE": 0, "CLASSIFICATION_TYPE": "U", "NORAD_CAT_ID": 29874, "ELEMENT_SET_NO": 999, "REV_AT_EPOCH": 96975, "BSTAR": 0.0023685425, "MEAN_MOTION_DOT": 6.307e-05, "MEAN_MOTION_DDOT": 0}, "tle": {"line1": "1 29874U 99025FU  25355.66149936  .00006307  00000+0  23685-2 0  9990", "line2": "2 29874  98.3791 252.2044 0104359 325.0932  92.1279 14.28932875969759"}}, "geometry": {"type": "Point", "coordinates": [68.64056443695462, -33.88005056709239]}}, {"type": "Feature", "properties": {"norad_id": 29875, "name": "FENGYUN 1C DEB", "group": "fengyun-1c-debris", "lat": -76.61427524642815, "lon": -169.58773479989102, "alt_km": 855.3351988086779, "timestamp": "2025-12-23T20:42:37.347739+00:00", "meta": {"OBJECT_NAME": "FENGYUN 1C DEB", "OBJECT_ID": "1999-025FV", "EPOCH": "2025-12-23T02:46:25.705056", "MEAN_MOTION": 14.24879959, "ECCENTRICITY": 0.00827388, "INCLINATION": 98.4035, "RA_OF_ASC_NODE": 48.0996, "ARG_OF_PERICENTER": 33.1989, "MEAN_ANOMALY": 355.6093, "EPHEMERIS_TYPE": 0, "CLASSIFICATION_TYPE": "U", "NORAD_CAT_ID": 29875, "ELEMENT_SET_NO": 999, "REV_AT_EPOCH": 98470, "BSTAR": 2.8705557e-05, "MEAN_MOTION_DOT": 2.8e-07, "MEAN_MOTION_DDOT": 0}, "tle": {"line1": "1 29875U 99025FV  25357.11557529  .00000028  00000+0  28706-4 0  9999", "line2": "2 29875  98.4035  48.0996 0082738  33.1989 355.6093 14.24879959984706"}}, "geometry": {"type": "Point", "coordinates": [-169.58773479989102, -76.61427524642815]}}, {"type": "Feature", "properties": {"norad_id": 29876, "name": "FENGYUN 1C DEB", "group": "fengyun-1c-debris", "lat": -27.853426770643914, "lon": 52.235940614983065, "alt_km": 787.3013377758471, "timestamp": "2025-12-23T20:42:37.347749+00:00", "meta": {"OBJECT_NAME": "FENGYUN 1C DEB", "OBJECT_ID": "1999-025FW", "EPOCH": "2025-12-22T15:10:30.337248", "MEAN_MOTION": 14.20303455, "ECCENTRICITY": 0.00609299, "INCLINATION": 98.3318, "RA_OF_ASC_NODE": 46.6351, "ARG_OF_PERICENTER": 348.5223, "MEAN_ANOMALY": 174.7907, "EPHEMERIS_TYPE": 0, "CLASSIFICATION_TYPE": "U", "NORAD_CAT_ID": 29876, "ELEMENT_SET_NO": 999, "REV_AT_EPOCH": 98057, "BSTAR": 0.00013274095, "MEAN_MOTION_DOT": 2.48e-06, "MEAN_MOTION_DDOT": 0}, "tle": {"line1": "1 29876U 99025FW  25356.63229557  .00000248  00000+0  13274-3 0  9990", "line2": "2 29876  98.3318  46.6351 0060929 348.5223 174.7907 14.20303455980575"}}, "geometry": {"type": "Point", "coordinates": [52.235940614983065, -27.853426770643914]}}, {"type": "Feature", "properties": {"norad_id": 29877, "name": "FENGYUN 1C DEB", "group": "fengyun-1c-debris", "lat": 12.633051561539736, "lon": 0.9378008767316045, "alt_km": 843.3116930686901, "timestamp": "2025-12-23T20:42:37.347760+00:00", "meta": {"OBJECT_NAME": "FENGYUN 1C DEB", "OBJECT_ID": "1999-025FX", "EPOCH": "2025-12-22T23:02:48.204096", "MEAN_MOTION": 14.24812646, "ECCENTRICITY": 0.0046353, "INCLINATION": 98.5369, "RA_OF_ASC_NODE": 1.9894, "ARG_OF_PERICENTER": 188.2494, "MEAN_ANOMALY": 237.3419, "EPHEMERIS_TYPE": 0, "CLASSIFICATION_TYPE": "U", "NORAD_CAT_ID": 29877, "ELEMENT_SET_NO": 999, "REV_AT_EPOCH": 98119, "BSTAR": 0.00040752, "MEAN_MOTION_DOT": 9.18e-06, "MEAN_MOTION_DDOT": 0}, "tle": {"line1": "1 29877U 99025FX  25356.96028014  .00000918  00000+0  40752-3 0  9997", "line2": "2 29877  98.5369   1.9894 0046353 188.2494 237.3419 14.24812646981198"}}, "geometry": {"type": "Point", "coordinates": [0.9378008767316045, 12.633051561539736]}}]}